[{"OBJECT_NAME":"KUIPER-00038","OBJECT_ID":"2025-088AC","EPOCH":"2026-03-09T19:01:37.619328","MEAN_MOTION":14.79885691,"ECCENTRICITY":4.544e-5,"INCLINATION":51.8997,"RA_OF_ASC_NODE":97.639,"ARG_OF_PERICENTER":90.9171,"MEAN_ANOMALY":269.1843,"EPHEMERIS_TYPE":0,"CLASSIFICATION_TYPE":"U","NORAD_CAT_ID":63750,"ELEMENT_SET_NO":999,"REV_AT_EPOCH":4753,"BSTAR":-0.00067544454,"MEAN_MOTION_DOT":-5.36e-5,"MEAN_MOTION_DDOT":0},{"OBJECT_NAME":"CZ-6A DEB","OBJECT_ID":"2022-151WL","EPOCH":"2026-03-09T15:36:21.753792","MEAN_MOTION":14.61392392,"ECCENTRICITY":0.00823531,"INCLINATION":98.6171,"RA_OF_ASC_NODE":123.1164,"ARG_OF_PERICENTER":246.1711,"MEAN_ANOMALY":113.084,"EPHEMERIS_TYPE":0,"CLASSIFICATION_TYPE":"U","NORAD_CAT_ID":55219,"ELEMENT_SET_NO":999,"REV_AT_EPOCH":16996,"BSTAR":0.0015577651,"MEAN_MOTION_DOT":8.039e-5,"MEAN_MOTION_DDOT":0}]
